HULIANWANG DIGUI-01     
1 62323U 24240A   25223.25146021  .00000057  00000+0  97944-4 0  9991
2 62323  86.4932  87.8402 0001579  68.8860 291.2443 13.24414887 31615
HULIANWANG DIGUI-02     
1 62324U 24240B   25223.25905120  .00000067  00000+0  12151-3 0  9992
2 62324  86.4961  87.9102 0001701  69.7000 290.4316 13.24415633 31620
HULIANWANG DIGUI-03     
1 62325U 24240C   25223.24388688  .00000057  00000+0  97781-4 0  9998
2 62325  86.4914  87.7970 0001522  69.3315 290.7982 13.24415005 31610
HULIANWANG DIGUI-04     
1 62326U 24240D   25223.23628761  .00000038  00000+0  54892-4 0  9992
2 62326  86.4924  87.8128 0001556  69.3588 290.7712 13.24414138 31614
HULIANWANG DIGUI-05     
1 62327U 24240E   25223.22872600  .00000039  00000+0  55794-4 0  9998
2 62327  86.4976  87.9318 0001577  70.9769 289.1536 13.24413775 31618
HULIANWANG DIGUI-06     
1 62328U 24240F   25223.21361539  .00000045  00000+0  69938-4 0  9994
2 62328  86.4914  87.7790 0001657  69.5984 290.5328 13.24412742 31613
HULIANWANG DIGUI-07     
1 62329U 24240G   25223.28160804  .00000056  00000+0  95597-4 0  9996
2 62329  86.4884  87.6823 0001614  73.3043 286.8268 13.24414148 31622
HULIANWANG DIGUI-08     
1 62330U 24240H   25223.22118178  .00000040  00000+0  59565-4 0  9997
2 62330  86.4968  87.9085 0001543  69.7098 290.4202 13.24413714 31616
HULIANWANG DIGUI-09     
1 62331U 24240J   25223.27419145  .00000062  00000+0  10965-3 0  9995
2 62331  86.4934  87.8535 0001615  69.7650 290.3657 13.24416137 31618
HULIANWANG DIGUI-10     
1 62332U 24240K   25220.01807963  .00000043  00000+0  66063-4 0  9994
2 62332  86.4970  89.0152 0001747  67.4014 292.7305 13.24415936 31187
HULIANWANG DIGUI-11     
1 62971U 25030A   25223.19602508 -.00000087  00000+0  80418-4 0  9990
2 62971  49.9999 267.6991 0000932 280.8965  79.1802 13.29327213 24622
HULIANWANG DIGUI-12     
1 62972U 25030B   25223.20438480 -.00000081  00000+0  92047-4 0  9994
2 62972  50.0015 267.7654 0001009 274.5534  85.5223 13.29327826 24628
HULIANWANG DIGUI-13     
1 62973U 25030C   25223.26286635 -.00000079  00000+0  97112-4 0  9999
2 62973  50.0018 267.4152 0000868 272.0246  88.0526 13.29326704 24636
HULIANWANG DIGUI-14     
1 62974U 25030D   25223.23780246 -.00000083  00000+0  87650-4 0  9995
2 62974  50.0023 267.2948 0000918 274.7154  85.3614 13.29327870 24630
HULIANWANG DIGUI-15     
1 62975U 25030E   25223.25450836 -.00000082  00000+0  89867-4 0  9998
2 62975  50.0019 267.3735 0000900 279.5656  80.5114 13.29327293 24633
HULIANWANG DIGUI-16     
1 62976U 25030F   25223.22945360 -.00000087  00000+0  79222-4 0  9996
2 62976  50.0041 267.2779 0000915 272.5970  87.4798 13.29327377 24631
HULIANWANG DIGUI-17     
1 62977U 25030G   25223.22109303 -.00000089  00000+0  76097-4 0  9995
2 62977  50.0054 267.2534 0000852 276.4261  83.6514 13.29327571 24631
HULIANWANG DIGUI-18     
1 62978U 25030H   25223.21272686 -.00000087  00000+0  80048-4 0  9999
2 62978  50.0058 267.2136 0000901 276.0968  83.9802 13.29327598 24631
HULIANWANG DIGUI-19     
1 62979U 25030J   25223.24615575 -.00000083  00000+0  88484-4 0  9999
2 62979  50.0043 267.3666 0000956 273.2955  86.7808 13.29326998 24630
HULIANWANG DIGUI-20     
1 63687U 25086A   25223.27794462  .00000045  00000+0  70998-4 0  9991
2 63687  86.4996  57.4861 0001827  75.4660 284.6677 13.24416320 13854
HULIANWANG DIGUI-21     
1 63688U 25086B   25223.20993386  .00000035  00000+0  48024-4 0  9995
2 63688  86.5024  57.4822 0001940  76.7158 283.4193 13.24416537 13835
HULIANWANG DIGUI-22     
1 63689U 25086C   25223.21750710  .00000025  00000+0  23219-4 0  9997
2 63689  86.4989  57.4517 0001836  74.5352 285.5984 13.24416698 13831
HULIANWANG DIGUI-23     
1 63690U 25086D   25223.23260937  .00000040  00000+0  59349-4 0  9998
2 63690  86.5030  57.5008 0001787  77.2295 282.9038 13.24416698 13839
HULIANWANG DIGUI-24     
1 63691U 25086E   25223.24016102  .00000042  00000+0  62983-4 0  9993
2 63691  86.5037  57.5114 0001896  76.2062 283.9283 13.24416398 13837
HULIANWANG DIGUI-25     
1 63692U 25086F   25223.24771116  .00000051  00000+0  84544-4 0  9994
2 63692  86.4975  57.4518 0001901  76.6763 283.4583 13.24416129 13834
HULIANWANG DIGUI-26     
1 63693U 25086G   25223.22501764  .00000025  00000+0  24316-4 0  9995
2 63693  86.5024  57.4899 0001850  74.4115 285.7223 13.24418446 13833
HULIANWANG DIGUI-27     
1 63694U 25086H   25223.25526599  .00000065  00000+0  11752-3 0  9995
2 63694  86.4985  57.4650 0001843  75.7187 284.4152 13.24416439 13836
HULIANWANG DIGUI-28     
1 63695U 25086J   25223.27037159  .00000057  00000+0  97596-4 0  9999
2 63695  86.4950  57.4352 0001809  74.0783 286.0550 13.24416339 13833
HULIANWANG DIGUI-29     
1 63696U 25086K   25223.26281360  .00000068  00000+0  12424-3 0  9992
2 63696  86.4977  57.4624 0001829  78.0437 282.0902 13.24416203 13834
HULIANWANG DIGUI-30     
1 64283U 25121A   25223.24565041  .00000070  00000+0  74431-4 0  9994
2 64283  86.4985 118.6192 0001043  91.6648 268.4625 13.57816767  9064
HULIANWANG DIGUI-31     
1 64284U 25121B   25223.23852494  .00000055  00000+0  54550-4 0  9998
2 64284  86.5008 118.6307 0001068  91.9116 268.2160 13.58070447  9060
HULIANWANG DIGUI-32     
1 64285U 25121C   25223.23184167  .00000060  00000+0  60251-4 0  9995
2 64285  86.4949 118.5812 0001114 100.9245 259.2033 13.58088031  9067
HULIANWANG DIGUI-33     
1 64286U 25121D   25223.22342222  .00000063  00000+0  65604-4 0  9993
2 64286  86.5007 118.6228 0001139  85.8545 274.2739 13.58104644  9066
HULIANWANG DIGUI-34     
1 64287U 25121E   25223.22063749  .00000069  00000+0  73183-4 0  9995
2 64287  86.4983 118.6047 0001255  93.6517 266.4780 13.57957339  9068
HULIANWANG DIGUI 5A     
1 64956U 25159A   25222.95114858  .00000101  00000+0  10569-3 0  9991
2 64956  86.4968  27.6983 0002463 155.6011 204.5263 13.64700500  1977
HULIANWANG DIGUI 5B     
1 64957U 25159B   25222.94882319  .00000136  00000+0  14693-3 0  9995
2 64957  86.4981  27.7002 0002540 160.7859 199.3395 13.65259657  1979
HULIANWANG DIGUI 5C     
1 64958U 25159C   25222.96948206  .00000184  00000+0  20548-3 0  9995
2 64958  86.4888  27.6832 0002423  73.2714  40.1535 13.65582206  1972
HULIANWANG DIGUI 5D     
1 64959U 25159D   25223.23702194  .00000071  00000+0  66347-4 0  9994
2 64959  86.4978  27.5927 0001435  94.8406 265.2915 13.65908741  2010
HULIANWANG DIGUI 6A     
1 65043U 25162A   25222.74709873  .00000029  00000+0  11308-3 0  9998
2 65043  50.0018 328.5788 0008010 303.1007  56.9128 14.04172994  1607
HULIANWANG DIGUI 6B     
1 65044U 25162B   25222.74435400 -.00000429  00000+0 -17225-3 0  9991
2 65044  50.0040 328.5652 0007016 299.2011  60.8191 14.04713532  1612
HULIANWANG DIGUI 6C     
1 65045U 25162C   25223.24079545  .00000011  00000+0  99668-4 0  9999
2 65045  49.9990 326.5197 0007317 309.5661  50.4597 14.05501608  1688
HULIANWANG DIGUI 6D     
1 65046U 25162D   25223.23996266  .00000018  00000+0  10299-3 0  9996
2 65046  50.0009 326.5186 0006272 305.1916  54.8402 14.06046191  1680
HULIANWANG DIGUI 6E     
1 65047U 25162E   25223.23939979  .00000003  00000+0  94264-4 0  9994
2 65047  50.0036 326.5200 0007886 314.2752  45.7506 14.06115409  1682
HULIANWANG DIGUI 6F     
1 65048U 25162F   25223.23832403  .00000021  00000+0  10477-3 0  9992
2 65048  50.0069 326.5196 0005894 312.4061  47.6345 14.06242330  1689
HULIANWANG DIGUI 6G     
1 65049U 25162G   25223.23798191 -.00000031  00000+0  73160-4 0  9999
2 65049  50.0086 326.5206 0006994 318.2572  41.7799 14.06275748  1681
HULIANWANG DIGUI 6H     
1 65050U 25162H   25223.30820502  .00000003  00000+0  93762-4 0  9999
2 65050  50.0052 326.2199 0007178 323.2947  36.7466 14.06380689  1698
HULIANWANG DIGUI 6J     
1 65051U 25162J   25223.30781336 -.00000003  00000+0  89827-4 0  9999
2 65051  50.0061 326.2196 0005668 319.9885  40.0602 14.06427726  1695
HULIANWANG DIGUI 7A     
1 65106U 25168A   25223.19466697  .00000043  00000+0  13431-3 0  9993
2 65106  50.0049  30.7559 0010240 246.8578 113.1245 13.98138949   949
HULIANWANG DIGUI 7B     
1 65107U 25168B   25223.12252086 -.00000115  00000+0  23554-4 0  9991
2 65107  50.0018  31.0312 0009867 243.1549 116.8345 13.98290873   933
HULIANWANG DIGUI 7C     
1 65108U 25168C   25223.19398918  .00000034  00000+0  12798-3 0  9990
2 65108  50.0056  30.7535 0009643 244.8443 115.1459 13.98292028   945
HULIANWANG DIGUI 7D     
1 65109U 25168D   25223.05083880 -.00000259  00000+0 -76725-4 0  9997
2 65109  50.0066  31.3282 0009087 252.4143 107.5767 13.98335061   927
HULIANWANG DIGUI 7E     
1 65110U 25168E   25223.05020723 -.00000163  00000+0 -91982-5 0  9993
2 65110  50.0058  31.3271 0008549 249.5676 110.4308 13.98469832   926
HULIANWANG DIGUI 7F     
1 65111U 25168F   25223.19288829 -.00000028  00000+0  84253-4 0  9993
2 65111  50.0005  30.7343 0008333 250.2618 109.7385 13.98518659   948
HULIANWANG DIGUI 7G     
1 65112U 25168G   25223.19285843 -.00000035  00000+0  79309-4 0  9991
2 65112  50.0013  30.7357 0008647 241.6314 118.3717 13.98525810   940
HULIANWANG DIGUI 7H     
1 65113U 25168H   25223.19211969 -.00000091  00000+0  40426-4 0  9990
2 65113  50.0009  30.7297 0007755 244.2819 115.7283 13.98678976   948
HULIANWANG DIGUI 7J     
1 65114U 25168J   25223.19158674 -.00000448  00000+0 -20649-3 0  9995
2 65114  50.0047  30.7344 0007021 248.7670 111.2483 13.98790184   954
